[{"OBJECT_NAME":"STARLINK-36245","OBJECT_ID":"2026-059H","EPOCH":"2026-04-16T22:00:01.999584","MEAN_MOTION":15.62225726,"ECCENTRICITY":0.00010424,"INCLINATION":53.1597,"RA_OF_ASC_NODE":171.5426,"ARG_OF_PERICENTER":60.8546,"MEAN_ANOMALY":47.6169,"EPHEMERIS_TYPE":0,"CLASSIFICATION_TYPE":"U","NORAD_CAT_ID":68328,"ELEMENT_SET_NO":999,"REV_AT_EPOCH":518,"BSTAR":-0.023874093,"MEAN_MOTION_DOT":-0.01895622,"MEAN_MOTION_DDOT":0},{"OBJECT_NAME":"STARLINK-37204","OBJECT_ID":"2026-059J","EPOCH":"2026-04-16T22:00:01.999584","MEAN_MOTION":15.57457103,"ECCENTRICITY":7.661e-5,"INCLINATION":53.1594,"RA_OF_ASC_NODE":171.7265,"ARG_OF_PERICENTER":83.3278,"MEAN_ANOMALY":294.9615,"EPHEMERIS_TYPE":0,"CLASSIFICATION_TYPE":"U","NORAD_CAT_ID":68329,"ELEMENT_SET_NO":999,"REV_AT_EPOCH":518,"BSTAR":-0.028377338,"MEAN_MOTION_DOT":-0.01876898,"MEAN_MOTION_DDOT":0},{"OBJECT_NAME":"STARLINK-37001","OBJECT_ID":"2026-059K","EPOCH":"2026-04-16T22:00:01.999584","MEAN_MOTION":15.49299994,"ECCENTRICITY":0.00010962,"INCLINATION":53.1598,"RA_OF_ASC_NODE":172.3727,"ARG_OF_PERICENTER":70.3779,"MEAN_ANOMALY":349.0343,"EPHEMERIS_TYPE":0,"CLASSIFICATION_TYPE":"U","NORAD_CAT_ID":68330,"ELEMENT_SET_NO":999,"REV_AT_EPOCH":518,"BSTAR":0.00024312274,"MEAN_MOTION_DOT":0.00013092,"MEAN_MOTION_DDOT":0},{"OBJECT_NAME":"STARLINK-36932","OBJECT_ID":"2026-059L","EPOCH":"2026-04-16T22:00:01.999584","MEAN_MOTION":15.63946394,"ECCENTRICITY":0.00012513,"INCLINATION":53.1592,"RA_OF_ASC_NODE":171.4717,"ARG_OF_PERICENTER":58.6756,"MEAN_ANOMALY":84.5485,"EPHEMERIS_TYPE":0,"CLASSIFICATION_TYPE":"U","NORAD_CAT_ID":68331,"ELEMENT_SET_NO":999,"REV_AT_EPOCH":518,"BSTAR":-0.022416218,"MEAN_MOTION_DOT":-0.01904402,"MEAN_MOTION_DDOT":0},{"OBJECT_NAME":"STARLINK-37205","OBJECT_ID":"2026-059M","EPOCH":"2026-04-16T22:00:01.999584","MEAN_MOTION":15.57349201,"ECCENTRICITY":7.824e-5,"INCLINATION":53.1596,"RA_OF_ASC_NODE":171.6952,"ARG_OF_PERICENTER":82.2274,"MEAN_ANOMALY":310.9828,"EPHEMERIS_TYPE":0,"CLASSIFICATION_TYPE":"U","NORAD_CAT_ID":68332,"ELEMENT_SET_NO":999,"REV_AT_EPOCH":518,"BSTAR":-0.028496423,"MEAN_MOTION_DOT":-0.01877085,"MEAN_MOTION_DDOT":0},{"OBJECT_NAME":"STARLINK-37180","OBJECT_ID":"2026-059N","EPOCH":"2026-04-16T22:00:01.999584","MEAN_MOTION":15.49301353,"ECCENTRICITY":0.00010558,"INCLINATION":53.1601,"RA_OF_ASC_NODE":172.484,"ARG_OF_PERICENTER":67.7403,"MEAN_ANOMALY":296.4463,"EPHEMERIS_TYPE":0,"CLASSIFICATION_TYPE":"U","NORAD_CAT_ID":68333,"ELEMENT_SET_NO":999,"REV_AT_EPOCH":518,"BSTAR":0.00018519292,"MEAN_MOTION_DOT":9.862e-5,"MEAN_MOTION_DDOT":0},{"OBJECT_NAME":"STARLINK-37191","OBJECT_ID":"2026-059P","EPOCH":"2026-04-16T22:00:01.999584","MEAN_MOTION":15.57153755,"ECCENTRICITY":7.998e-5,"INCLINATION":53.16,"RA_OF_ASC_NODE":171.6854,"ARG_OF_PERICENTER":77.9992,"MEAN_ANOMALY":319.8183,"EPHEMERIS_TYPE":0,"CLASSIFICATION_TYPE":"U","NORAD_CAT_ID":68334,"ELEMENT_SET_NO":999,"REV_AT_EPOCH":518,"BSTAR":-0.02866186,"MEAN_MOTION_DOT":-0.01874451,"MEAN_MOTION_DDOT":0},{"OBJECT_NAME":"STARLINK-37217","OBJECT_ID":"2026-059Q","EPOCH":"2026-04-16T22:00:01.999584","MEAN_MOTION":15.56251118,"ECCENTRICITY":7.353e-5,"INCLINATION":53.1597,"RA_OF_ASC_NODE":171.7156,"ARG_OF_PERICENTER":78.5762,"MEAN_ANOMALY":304.3831,"EPHEMERIS_TYPE":0,"CLASSIFICATION_TYPE":"U","NORAD_CAT_ID":68335,"ELEMENT_SET_NO":999,"REV_AT_EPOCH":518,"BSTAR":-0.030044461,"MEAN_MOTION_DOT":-0.01896317,"MEAN_MOTION_DDOT":0},{"OBJECT_NAME":"STARLINK-37143","OBJECT_ID":"2026-059R","EPOCH":"2026-04-16T22:00:01.999584","MEAN_MOTION":15.60277591,"ECCENTRICITY":9.712e-5,"INCLINATION":53.1596,"RA_OF_ASC_NODE":171.5479,"ARG_OF_PERICENTER":72.4533,"MEAN_ANOMALY":33.0985,"EPHEMERIS_TYPE":0,"CLASSIFICATION_TYPE":"U","NORAD_CAT_ID":68336,"ELEMENT_SET_NO":999,"REV_AT_EPOCH":518,"BSTAR":-0.025786524,"MEAN_MOTION_DOT":-0.01897351,"MEAN_MOTION_DDOT":0},{"OBJECT_NAME":"STARLINK-36237","OBJECT_ID":"2026-059S","EPOCH":"2026-04-16T22:00:01.999584","MEAN_MOTION":15.64907081,"ECCENTRICITY":0.00012923,"INCLINATION":53.1588,"RA_OF_ASC_NODE":171.3913,"ARG_OF_PERICENTER":65.8445,"MEAN_ANOMALY":116.5092,"EPHEMERIS_TYPE":0,"CLASSIFICATION_TYPE":"U","NORAD_CAT_ID":68337,"ELEMENT_SET_NO":999,"REV_AT_EPOCH":518,"BSTAR":-0.021694309,"MEAN_MOTION_DOT":-0.01914136,"MEAN_MOTION_DDOT":0},{"OBJECT_NAME":"STARLINK-36254","OBJECT_ID":"2026-059T","EPOCH":"2026-04-16T22:00:01.999584","MEAN_MOTION":15.65514045,"ECCENTRICITY":0.0001331,"INCLINATION":53.1593,"RA_OF_ASC_NODE":171.3571,"ARG_OF_PERICENTER":69.876,"MEAN_ANOMALY":129.172,"EPHEMERIS_TYPE":0,"CLASSIFICATION_TYPE":"U","NORAD_CAT_ID":68338,"ELEMENT_SET_NO":999,"REV_AT_EPOCH":518,"BSTAR":-0.021177735,"MEAN_MOTION_DOT":-0.01914799,"MEAN_MOTION_DDOT":0},{"OBJECT_NAME":"STARLINK-37200","OBJECT_ID":"2026-059U","EPOCH":"2026-04-16T22:00:01.999584","MEAN_MOTION":15.65152397,"ECCENTRICITY":0.00013085,"INCLINATION":53.1588,"RA_OF_ASC_NODE":171.3757,"ARG_OF_PERICENTER":67.6858,"MEAN_ANOMALY":122.2633,"EPHEMERIS_TYPE":0,"CLASSIFICATION_TYPE":"U","NORAD_CAT_ID":68339,"ELEMENT_SET_NO":999,"REV_AT_EPOCH":518,"BSTAR":-0.021498407,"MEAN_MOTION_DOT":-0.01915512,"MEAN_MOTION_DDOT":0},{"OBJECT_NAME":"STARLINK-37185","OBJECT_ID":"2026-059V","EPOCH":"2026-04-16T22:00:01.999584","MEAN_MOTION":15.61493637,"ECCENTRICITY":0.00012525,"INCLINATION":53.1593,"RA_OF_ASC_NODE":171.4701,"ARG_OF_PERICENTER":65.3137,"MEAN_ANOMALY":78.1235,"EPHEMERIS_TYPE":0,"CLASSIFICATION_TYPE":"U","NORAD_CAT_ID":68340,"ELEMENT_SET_NO":999,"REV_AT_EPOCH":518,"BSTAR":-0.024679372,"MEAN_MOTION_DOT":-0.01903269,"MEAN_MOTION_DDOT":0},{"OBJECT_NAME":"STARLINK-37181","OBJECT_ID":"2026-059W","EPOCH":"2026-04-16T22:00:01.999584","MEAN_MOTION":15.62696539,"ECCENTRICITY":0.00012731,"INCLINATION":53.1591,"RA_OF_ASC_NODE":171.4221,"ARG_OF_PERICENTER":63.3964,"MEAN_ANOMALY":103.7091,"EPHEMERIS_TYPE":0,"CLASSIFICATION_TYPE":"U","NORAD_CAT_ID":68341,"ELEMENT_SET_NO":999,"REV_AT_EPOCH":518,"BSTAR":-0.02352961,"MEAN_MOTION_DOT":-0.01902521,"MEAN_MOTION_DDOT":0},{"OBJECT_NAME":"STARLINK-37192","OBJECT_ID":"2026-059X","EPOCH":"2026-04-16T22:00:01.999584","MEAN_MOTION":15.49300491,"ECCENTRICITY":7.35e-5,"INCLINATION":53.1599,"RA_OF_ASC_NODE":172.4999,"ARG_OF_PERICENTER":76.1444,"MEAN_ANOMALY":279.5521,"EPHEMERIS_TYPE":0,"CLASSIFICATION_TYPE":"U","NORAD_CAT_ID":68342,"ELEMENT_SET_NO":999,"REV_AT_EPOCH":518,"BSTAR":0.00016898723,"MEAN_MOTION_DOT":8.958e-5,"MEAN_MOTION_DDOT":0},{"OBJECT_NAME":"STARLINK-37158","OBJECT_ID":"2026-059Y","EPOCH":"2026-04-16T22:00:01.999584","MEAN_MOTION":15.58818608,"ECCENTRICITY":9.101e-5,"INCLINATION":53.1595,"RA_OF_ASC_NODE":171.5309,"ARG_OF_PERICENTER":65.191,"MEAN_ANOMALY":48.0848,"EPHEMERIS_TYPE":0,"CLASSIFICATION_TYPE":"U","NORAD_CAT_ID":68343,"ELEMENT_SET_NO":999,"REV_AT_EPOCH":518,"BSTAR":-0.026826037,"MEAN_MOTION_DOT":-0.0186965,"MEAN_MOTION_DDOT":0}]
