STARLINK-36245
1 68328U 26059H   26106.91668981 -.01895622  00000+0 -23874-1 0  9991
2 68328  53.1597 171.5426 0001042  60.8546  47.6169 15.62225726  5186
STARLINK-37204
1 68329U 26059J   26106.91668981 -.01876898  00000+0 -28377-1 0  9999
2 68329  53.1594 171.7265 0000766  83.3278 294.9615 15.57457103  5184
STARLINK-37001
1 68330U 26059K   26106.91668981  .00013092  00000+0  24312-3 0  9994
2 68330  53.1598 172.3727 0001096  70.3779 349.0343 15.49299994  5182
STARLINK-36932
1 68331U 26059L   26106.91668981 -.01904402  00000+0 -22416-1 0  9993
2 68331  53.1592 171.4717 0001251  58.6756  84.5485 15.63946394  5180
STARLINK-37205
1 68332U 26059M   26106.91668981 -.01877085  00000+0 -28496-1 0  9994
2 68332  53.1596 171.6952 0000782  82.2274 310.9828 15.57349201  5188
STARLINK-37180
1 68333U 26059N   26106.91668981  .00009862  00000+0  18519-3 0  9999
2 68333  53.1601 172.4840 0001055  67.7403 296.4463 15.49301353  5187
STARLINK-37191
1 68334U 26059P   26106.91668981 -.01874451  00000+0 -28662-1 0  9995
2 68334  53.1600 171.6854 0000799  77.9992 319.8183 15.57153755  5182
STARLINK-37217
1 68335U 26059Q   26106.91668981 -.01896317  00000+0 -30044-1 0  9998
2 68335  53.1597 171.7156 0000735  78.5762 304.3831 15.56251118  5186
STARLINK-37143
1 68336U 26059R   26106.91668981 -.01897351  00000+0 -25787-1 0  9996
2 68336  53.1596 171.5479 0000971  72.4533  33.0985 15.60277591  5187
STARLINK-36237
1 68337U 26059S   26106.91668981 -.01914136  00000+0 -21694-1 0  9991
2 68337  53.1588 171.3913 0001292  65.8445 116.5092 15.64907081  5189
STARLINK-36254
1 68338U 26059T   26106.91668981 -.01914799  00000+0 -21178-1 0  9994
2 68338  53.1593 171.3571 0001331  69.8760 129.1720 15.65514045  5187
STARLINK-37200
1 68339U 26059U   26106.91668981 -.01915512  00000+0 -21498-1 0  9994
2 68339  53.1588 171.3757 0001308  67.6858 122.2633 15.65152397  5181
STARLINK-37185
1 68340U 26059V   26106.91668981 -.01903269  00000+0 -24679-1 0  9996
2 68340  53.1593 171.4701 0001252  65.3137  78.1235 15.61493637  5180
STARLINK-37181
1 68341U 26059W   26106.91668981 -.01902521  00000+0 -23530-1 0  9992
2 68341  53.1591 171.4221 0001273  63.3964 103.7091 15.62696539  5187
STARLINK-37192
1 68342U 26059X   26106.91668981  .00008958  00000+0  16899-3 0  9993
2 68342  53.1599 172.4999 0000735  76.1444 279.5521 15.49300491  5180
STARLINK-37158
1 68343U 26059Y   26106.91668981 -.01869650  00000+0 -26826-1 0  9990
2 68343  53.1595 171.5309 0000910  65.1910  48.0848 15.58818608  5188
